{
  "type": "FeatureCollection",
  "features": [
    {
      "type": "Feature",
      "properties": {
        "norad_id": 34852,
        "name": "COSMOS 2251 DEB",
        "group": "cosmos-2251-debris",
        "lat": 52.781753069538865,
        "lon": -89.11642598797297,
        "alt_km": 758.2477315434999,
        "timestamp": "2025-12-20T11:30:28.771353+00:00",
        "meta_object_name": "COSMOS 2251 DEB",
        "meta_object_id": "1993-036ABW",
        "meta_epoch": "2025-12-19T23:33:13.329792",
        "meta_mean_motion": 14.3701024,
        "meta_eccentricity": 0.0016506,
        "meta_inclination": 74.0326,
        "meta_ra_of_asc_node": 249.654,
        "meta_arg_of_pericenter": 351.2067,
        "meta_mean_anomaly": 8.8795,
        "meta_ephemeris_type": 0,
        "meta_classification_type": "U",
        "meta_norad_cat_id": 34852,
        "meta_element_set_no": 999,
        "meta_rev_at_epoch": 87638,
        "meta_bstar": 8.7686e-05,
        "meta_mean_motion_dot": 2.34e-06,
        "meta_mean_motion_ddot": 0,
        "tle_line1": "1 34852U 93036ABW 25353.98140428  .00000234  00000+0  87686-4 0  9994",
        "tle_line2": "2 34852  74.0326 249.6540 0016506 351.2067   8.8795 14.37010240876389"
      },
      "geometry": {
        "type": "Point",
        "coordinates": [
          -89.11642598797297,
          52.781753069538865
        ]
      }
    },
    {
      "type": "Feature",
      "properties": {
        "norad_id": 34854,
        "name": "COSMOS 2251 DEB",
        "group": "cosmos-2251-debris",
        "lat": -15.410270202481183,
        "lon": 138.8830267508666,
        "alt_km": 644.3973172115429,
        "timestamp": "2025-12-20T11:30:28.771363+00:00",
        "meta_object_name": "COSMOS 2251 DEB",
        "meta_object_id": "1993-036ABY",
        "meta_epoch": "2025-12-19T03:03:42.702912",
        "meta_mean_motion": 14.76684297,
        "meta_eccentricity": 0.00660293,
        "meta_inclination": 74.0285,
        "meta_ra_of_asc_node": 146.0601,
        "meta_arg_of_pericenter": 256.446,
        "meta_mean_anomaly": 102.9353,
        "meta_ephemeris_type": 0,
        "meta_classification_type": "U",
        "meta_norad_cat_id": 34854,
        "meta_element_set_no": 999,
        "meta_rev_at_epoch": 71976,
        "meta_bstar": 0.00056593375,
        "meta_mean_motion_dot": 4.07e-05,
        "meta_mean_motion_ddot": 0,
        "tle_line1": "1 34854U 93036ABY 25353.12757758  .00004070  00000+0  56593-3 0  9996",
        "tle_line2": "2 34854  74.0285 146.0601 0066029 256.4460 102.9353 14.76684297719767"
      },
      "geometry": {
        "type": "Point",
        "coordinates": [
          138.8830267508666,
          -15.410270202481183
        ]
      }
    },
    {
      "type": "Feature",
      "properties": {
        "norad_id": 34856,
        "name": "COSMOS 2251 DEB",
        "group": "cosmos-2251-debris",
        "lat": 18.141470617853965,
        "lon": -116.4650303502365,
        "alt_km": 531.3610343859546,
        "timestamp": "2025-12-20T11:30:28.771373+00:00",
        "meta_object_name": "COSMOS 2251 DEB",
        "meta_object_id": "1993-036ACA",
        "meta_epoch": "2025-12-19T06:24:00.092736",
        "meta_mean_motion": 15.06389388,
        "meta_eccentricity": 0.0032064,
        "meta_inclination": 73.9981,
        "meta_ra_of_asc_node": 71.4246,
        "meta_arg_of_pericenter": 208.487,
        "meta_mean_anomaly": 218.2947,
        "meta_ephemeris_type": 0,
        "meta_classification_type": "U",
        "meta_norad_cat_id": 34856,
        "meta_element_set_no": 999,
        "meta_rev_at_epoch": 89210,
        "meta_bstar": 0.001117,
        "meta_mean_motion_dot": 0.00016644,
        "meta_mean_motion_ddot": 0,
        "tle_line1": "1 34856U 93036ACA 25353.26666774  .00016644  00000+0  11170-2 0  9991",
        "tle_line2": "2 34856  73.9981  71.4246 0032064 208.4870 218.2947 15.06389388892107"
      },
      "geometry": {
        "type": "Point",
        "coordinates": [
          -116.4650303502365,
          18.141470617853965
        ]
      }
    },
    {
      "type": "Feature",
      "properties": {
        "norad_id": 34857,
        "name": "COSMOS 2251 DEB",
        "group": "cosmos-2251-debris",
        "lat": -61.38148370085648,
        "lon": 60.3783762871288,
        "alt_km": 694.1951789163513,
        "timestamp": "2025-12-20T11:30:28.771384+00:00",
        "meta_object_name": "COSMOS 2251 DEB",
        "meta_object_id": "1993-036ACB",
        "meta_epoch": "2025-12-20T02:13:59.717856",
        "meta_mean_motion": 14.58960418,
        "meta_eccentricity": 0.0065562,
        "meta_inclination": 74.0165,
        "meta_ra_of_asc_node": 92.8036,
        "meta_arg_of_pericenter": 215.9328,
        "meta_mean_anomaly": 208.5442,
        "meta_ephemeris_type": 0,
        "meta_classification_type": "U",
        "meta_norad_cat_id": 34857,
        "meta_element_set_no": 999,
        "meta_rev_at_epoch": 88008,
        "meta_bstar": 0.00070359,
        "meta_mean_motion_dot": 3.371e-05,
        "meta_mean_motion_ddot": 0,
        "tle_line1": "1 34857U 93036ACB 25354.09305229  .00003371  00000+0  70359-3 0  9997",
        "tle_line2": "2 34857  74.0165  92.8036 0065562 215.9328 208.5442 14.58960418880089"
      },
      "geometry": {
        "type": "Point",
        "coordinates": [
          60.3783762871288,
          -61.38148370085648
        ]
      }
    },
    {
      "type": "Feature",
      "properties": {
        "norad_id": 34859,
        "name": "COSMOS 2251 DEB",
        "group": "cosmos-2251-debris",
        "lat": 16.008250257562008,
        "lon": -31.744396142585703,
        "alt_km": 517.2618567035643,
        "timestamp": "2025-12-20T11:30:28.771394+00:00",
        "meta_object_name": "COSMOS 2251 DEB",
        "meta_object_id": "1993-036ACD",
        "meta_epoch": "2025-12-20T00:39:03.765024",
        "meta_mean_motion": 15.15832734,
        "meta_eccentricity": 0.0002091,
        "meta_inclination": 74.0278,
        "meta_ra_of_asc_node": 324.4843,
        "meta_arg_of_pericenter": 20.5726,
        "meta_mean_anomaly": 48.6407,
        "meta_ephemeris_type": 0,
        "meta_classification_type": "U",
        "meta_norad_cat_id": 34859,
        "meta_element_set_no": 999,
        "meta_rev_at_epoch": 88469,
        "meta_bstar": 0.0027292,
        "meta_mean_motion_dot": 0.00052535,
        "meta_mean_motion_ddot": 0,
        "tle_line1": "1 34859U 93036ACD 25354.02712691  .00052535  00000+0  27292-2 0  9990",
        "tle_line2": "2 34859  74.0278 324.4843 0002091  20.5726  48.6407 15.15832734884694"
      },
      "geometry": {
        "type": "Point",
        "coordinates": [
          -31.744396142585703,
          16.008250257562008
        ]
      }
    },
    {
      "type": "Feature",
      "properties": {
        "norad_id": 34861,
        "name": "COSMOS 2251 DEB",
        "group": "cosmos-2251-debris",
        "lat": -61.64532728901014,
        "lon": 2.9631421152795543,
        "alt_km": 564.5063034074337,
        "timestamp": "2025-12-20T11:30:28.771404+00:00",
        "meta_object_name": "COSMOS 2251 DEB",
        "meta_object_id": "1993-036ACF",
        "meta_epoch": "2025-12-18T14:08:43.600128",
        "meta_mean_motion": 15.02920509,
        "meta_eccentricity": 0.00076164,
        "meta_inclination": 74.0194,
        "meta_ra_of_asc_node": 38.8984,
        "meta_arg_of_pericenter": 29.0921,
        "meta_mean_anomaly": 122.3778,
        "meta_ephemeris_type": 0,
        "meta_classification_type": "U",
        "meta_norad_cat_id": 34861,
        "meta_element_set_no": 999,
        "meta_rev_at_epoch": 88180,
        "meta_bstar": 0.0018473696,
        "meta_mean_motion_dot": 0.00024875,
        "meta_mean_motion_ddot": 0,
        "tle_line1": "1 34861U 93036ACF 25352.58939352  .00024875  00000+0  18474-2 0  9995",
        "tle_line2": "2 34861  74.0194  38.8984 0007616  29.0921 122.3778 15.02920509881800"
      },
      "geometry": {
        "type": "Point",
        "coordinates": [
          2.9631421152795543,
          -61.64532728901014
        ]
      }
    },
    {
      "type": "Feature",
      "properties": {
        "norad_id": 34874,
        "name": "COSMOS 2251 DEB",
        "group": "cosmos-2251-debris",
        "lat": -15.05769173078964,
        "lon": -116.03295048832109,
        "alt_km": 789.0077737969577,
        "timestamp": "2025-12-20T11:30:28.771414+00:00",
        "meta_object_name": "COSMOS 2251 DEB",
        "meta_object_id": "1993-036ACM",
        "meta_epoch": "2025-12-19T15:14:26.431296",
        "meta_mean_motion": 14.36339936,
        "meta_eccentricity": 0.0050622,
        "meta_inclination": 74.0394,
        "meta_ra_of_asc_node": 61.1016,
        "meta_arg_of_pericenter": 84.2082,
        "meta_mean_anomaly": 65.9606,
        "meta_ephemeris_type": 0,
        "meta_classification_type": "U",
        "meta_norad_cat_id": 34874,
        "meta_element_set_no": 999,
        "meta_rev_at_epoch": 87143,
        "meta_bstar": 0.00053501,
        "meta_mean_motion_dot": 1.563e-05,
        "meta_mean_motion_ddot": 0,
        "tle_line1": "1 34874U 93036ACM 25353.63502814  .00001563  00000+0  53501-3 0  9995",
        "tle_line2": "2 34874  74.0394  61.1016 0050622  84.2082  65.9606 14.36339936871431"
      },
      "geometry": {
        "type": "Point",
        "coordinates": [
          -116.03295048832109,
          -15.05769173078964
        ]
      }
    }
  ]
}